[{"OBJECT_NAME":"GYEONGGISAT-1","OBJECT_ID":"2025-276DK","EPOCH":"2026-03-09T18:01:52.501440","MEAN_MOTION":15.19586974,"ECCENTRICITY":0.00014169,"INCLINATION":97.4305,"RA_OF_ASC_NODE":144.1952,"ARG_OF_PERICENTER":168.8338,"MEAN_ANOMALY":191.2928,"EPHEMERIS_TYPE":0,"CLASSIFICATION_TYPE":"U","NORAD_CAT_ID":66771,"ELEMENT_SET_NO":999,"REV_AT_EPOCH":1533,"BSTAR":0.00034251892,"MEAN_MOTION_DOT":7.224e-5,"MEAN_MOTION_DDOT":0},{"OBJECT_NAME":"KUIPER-00183","OBJECT_ID":"2025-301F","EPOCH":"2026-03-09T22:00:01.999584","MEAN_MOTION":15.28555387,"ECCENTRICITY":0.00143222,"INCLINATION":51.8667,"RA_OF_ASC_NODE":65.0366,"ARG_OF_PERICENTER":58.1585,"MEAN_ANOMALY":99.3056,"EPHEMERIS_TYPE":0,"CLASSIFICATION_TYPE":"U","NORAD_CAT_ID":67138,"ELEMENT_SET_NO":999,"REV_AT_EPOCH":583,"BSTAR":-0.054814766,"MEAN_MOTION_DOT":-0.01408357,"MEAN_MOTION_DDOT":0}]
